[Satellite]
VERSION=1.1
NAME=SL-6 R/B(2)
NICKNAME=SL-6 R/B(2)
TLE1=1 20666U 90055D   18020.90940111  .00000056  00000-0  23102-4 0  9998
TLE2=2 20666  62.7845 139.6190 0113867 131.1811 229.9173 14.92075892494192
